[{"OBJECT_NAME":"STARLINK-35946","OBJECT_ID":"2025-265G","EPOCH":"2026-03-18T17:37:15.669696","MEAN_MOTION":15.27589965,"ECCENTRICITY":0.0001429,"INCLINATION":43.0012,"RA_OF_ASC_NODE":227.1149,"ARG_OF_PERICENTER":260.9248,"MEAN_ANOMALY":99.1442,"EPHEMERIS_TYPE":0,"CLASSIFICATION_TYPE":"U","NORAD_CAT_ID":66522,"ELEMENT_SET_NO":999,"REV_AT_EPOCH":1849,"BSTAR":0.00072275,"MEAN_MOTION_DOT":0.00019686,"MEAN_MOTION_DDOT":0},{"OBJECT_NAME":"STARLINK-35969","OBJECT_ID":"2025-265H","EPOCH":"2026-03-18T17:02:06.117792","MEAN_MOTION":15.27586276,"ECCENTRICITY":2.18e-5,"INCLINATION":42.9989,"RA_OF_ASC_NODE":226.9296,"ARG_OF_PERICENTER":206.1961,"MEAN_ANOMALY":153.8879,"EPHEMERIS_TYPE":0,"CLASSIFICATION_TYPE":"U","NORAD_CAT_ID":66523,"ELEMENT_SET_NO":999,"REV_AT_EPOCH":1849,"BSTAR":0.00064995,"MEAN_MOTION_DOT":0.0001767,"MEAN_MOTION_DDOT":0},{"OBJECT_NAME":"STARLINK-35687","OBJECT_ID":"2025-265J","EPOCH":"2026-03-18T16:16:03.183168","MEAN_MOTION":15.27579717,"ECCENTRICITY":0.0001251,"INCLINATION":42.9986,"RA_OF_ASC_NODE":227.5523,"ARG_OF_PERICENTER":236.5694,"MEAN_ANOMALY":123.5038,"EPHEMERIS_TYPE":0,"CLASSIFICATION_TYPE":"U","NORAD_CAT_ID":66524,"ELEMENT_SET_NO":999,"REV_AT_EPOCH":1848,"BSTAR":0.00092111,"MEAN_MOTION_DOT":0.00025171,"MEAN_MOTION_DDOT":0},{"OBJECT_NAME":"STARLINK-35975","OBJECT_ID":"2025-265K","EPOCH":"2026-03-18T17:03:57.088224","MEAN_MOTION":15.27622787,"ECCENTRICITY":0.000226,"INCLINATION":43.0017,"RA_OF_ASC_NODE":226.9443,"ARG_OF_PERICENTER":275.9318,"MEAN_ANOMALY":84.1276,"EPHEMERIS_TYPE":0,"CLASSIFICATION_TYPE":"U","NORAD_CAT_ID":66525,"ELEMENT_SET_NO":999,"REV_AT_EPOCH":1849,"BSTAR":0.0007749,"MEAN_MOTION_DOT":0.00021151,"MEAN_MOTION_DDOT":0},{"OBJECT_NAME":"STARLINK-35932","OBJECT_ID":"2025-265L","EPOCH":"2026-03-18T17:00:15.144768","MEAN_MOTION":15.27594006,"ECCENTRICITY":0.0001508,"INCLINATION":42.9992,"RA_OF_ASC_NODE":226.9228,"ARG_OF_PERICENTER":286.4347,"MEAN_ANOMALY":73.6339,"EPHEMERIS_TYPE":0,"CLASSIFICATION_TYPE":"U","NORAD_CAT_ID":66526,"ELEMENT_SET_NO":999,"REV_AT_EPOCH":1849,"BSTAR":0.0006767,"MEAN_MOTION_DOT":0.00018414,"MEAN_MOTION_DDOT":0},{"OBJECT_NAME":"STARLINK-35935","OBJECT_ID":"2025-265M","EPOCH":"2026-03-18T11:11:22.917408","MEAN_MOTION":15.27588077,"ECCENTRICITY":4.386e-5,"INCLINATION":43.0075,"RA_OF_ASC_NODE":228.5412,"ARG_OF_PERICENTER":251.1513,"MEAN_ANOMALY":108.9291,"EPHEMERIS_TYPE":0,"CLASSIFICATION_TYPE":"U","NORAD_CAT_ID":66527,"ELEMENT_SET_NO":999,"REV_AT_EPOCH":1845,"BSTAR":0.0006954464,"MEAN_MOTION_DOT":0.00018929,"MEAN_MOTION_DDOT":0},{"OBJECT_NAME":"STARLINK-35928","OBJECT_ID":"2025-265N","EPOCH":"2026-03-18T16:51:00.033408","MEAN_MOTION":15.27581274,"ECCENTRICITY":7.51e-5,"INCLINATION":42.9976,"RA_OF_ASC_NODE":226.8698,"ARG_OF_PERICENTER":262.6993,"MEAN_ANOMALY":97.3773,"EPHEMERIS_TYPE":0,"CLASSIFICATION_TYPE":"U","NORAD_CAT_ID":66528,"ELEMENT_SET_NO":999,"REV_AT_EPOCH":1849,"BSTAR":0.00059509,"MEAN_MOTION_DOT":0.0001615,"MEAN_MOTION_DDOT":0},{"OBJECT_NAME":"STARLINK-35933","OBJECT_ID":"2025-265P","EPOCH":"2026-03-18T16:10:31.130688","MEAN_MOTION":15.27624754,"ECCENTRICITY":0.0001247,"INCLINATION":43.0008,"RA_OF_ASC_NODE":227.5258,"ARG_OF_PERICENTER":260.5683,"MEAN_ANOMALY":99.5028,"EPHEMERIS_TYPE":0,"CLASSIFICATION_TYPE":"U","NORAD_CAT_ID":66529,"ELEMENT_SET_NO":999,"REV_AT_EPOCH":1848,"BSTAR":0.0011029,"MEAN_MOTION_DOT":0.00030254,"MEAN_MOTION_DDOT":0},{"OBJECT_NAME":"STARLINK-35961","OBJECT_ID":"2025-265Q","EPOCH":"2026-03-18T11:07:41.013696","MEAN_MOTION":15.27597287,"ECCENTRICITY":6.493e-5,"INCLINATION":43.0021,"RA_OF_ASC_NODE":228.5275,"ARG_OF_PERICENTER":271.0835,"MEAN_ANOMALY":88.9942,"EPHEMERIS_TYPE":0,"CLASSIFICATION_TYPE":"U","NORAD_CAT_ID":66530,"ELEMENT_SET_NO":999,"REV_AT_EPOCH":1845,"BSTAR":0.00072491804,"MEAN_MOTION_DOT":0.0001975,"MEAN_MOTION_DDOT":0},{"OBJECT_NAME":"STARLINK-35960","OBJECT_ID":"2025-265R","EPOCH":"2026-03-18T18:06:37.899648","MEAN_MOTION":15.27573234,"ECCENTRICITY":0.0001898,"INCLINATION":43.0008,"RA_OF_ASC_NODE":226.4084,"ARG_OF_PERICENTER":260.0497,"MEAN_ANOMALY":100.0141,"EPHEMERIS_TYPE":0,"CLASSIFICATION_TYPE":"U","NORAD_CAT_ID":66531,"ELEMENT_SET_NO":999,"REV_AT_EPOCH":1850,"BSTAR":0.00086576,"MEAN_MOTION_DOT":0.00023634,"MEAN_MOTION_DDOT":0},{"OBJECT_NAME":"STARLINK-35914","OBJECT_ID":"2025-265S","EPOCH":"2026-03-18T11:09:31.925376","MEAN_MOTION":15.27590626,"ECCENTRICITY":0.00011662,"INCLINATION":43.003,"RA_OF_ASC_NODE":228.5368,"ARG_OF_PERICENTER":271.4691,"MEAN_ANOMALY":88.6027,"EPHEMERIS_TYPE":0,"CLASSIFICATION_TYPE":"U","NORAD_CAT_ID":66532,"ELEMENT_SET_NO":999,"REV_AT_EPOCH":1845,"BSTAR":0.00059913063,"MEAN_MOTION_DOT":0.00016266,"MEAN_MOTION_DDOT":0},{"OBJECT_NAME":"STARLINK-35707","OBJECT_ID":"2025-265T","EPOCH":"2026-03-18T17:09:29.996928","MEAN_MOTION":15.27567496,"ECCENTRICITY":0.0001377,"INCLINATION":42.9997,"RA_OF_ASC_NODE":226.9713,"ARG_OF_PERICENTER":270.7869,"MEAN_ANOMALY":89.2824,"EPHEMERIS_TYPE":0,"CLASSIFICATION_TYPE":"U","NORAD_CAT_ID":66533,"ELEMENT_SET_NO":999,"REV_AT_EPOCH":1849,"BSTAR":0.00049537,"MEAN_MOTION_DOT":0.00013389,"MEAN_MOTION_DDOT":0},{"OBJECT_NAME":"STARLINK-35976","OBJECT_ID":"2025-265U","EPOCH":"2026-03-18T17:48:21.588192","MEAN_MOTION":15.2759581,"ECCENTRICITY":0.0001479,"INCLINATION":43.0013,"RA_OF_ASC_NODE":227.1676,"ARG_OF_PERICENTER":241.6523,"MEAN_ANOMALY":118.418,"EPHEMERIS_TYPE":0,"CLASSIFICATION_TYPE":"U","NORAD_CAT_ID":66534,"ELEMENT_SET_NO":999,"REV_AT_EPOCH":1849,"BSTAR":0.00055863,"MEAN_MOTION_DOT":0.00015149,"MEAN_MOTION_DDOT":0},{"OBJECT_NAME":"STARLINK-35514","OBJECT_ID":"2025-265V","EPOCH":"2026-03-18T11:26:10.963392","MEAN_MOTION":15.27580574,"ECCENTRICITY":0.00011467,"INCLINATION":43.0001,"RA_OF_ASC_NODE":228.6157,"ARG_OF_PERICENTER":239.7363,"MEAN_ANOMALY":120.3376,"EPHEMERIS_TYPE":0,"CLASSIFICATION_TYPE":"U","NORAD_CAT_ID":66535,"ELEMENT_SET_NO":999,"REV_AT_EPOCH":1845,"BSTAR":0.00088389692,"MEAN_MOTION_DOT":0.00024141,"MEAN_MOTION_DDOT":0},{"OBJECT_NAME":"STARLINK-35640","OBJECT_ID":"2025-265W","EPOCH":"2026-03-18T11:05:48.625440","MEAN_MOTION":15.2756585,"ECCENTRICITY":0.00017778,"INCLINATION":43.0034,"RA_OF_ASC_NODE":228.5137,"ARG_OF_PERICENTER":273.9332,"MEAN_ANOMALY":86.1317,"EPHEMERIS_TYPE":0,"CLASSIFICATION_TYPE":"U","NORAD_CAT_ID":66536,"ELEMENT_SET_NO":999,"REV_AT_EPOCH":1845,"BSTAR":-0.00027763408,"MEAN_MOTION_DOT":-7.891e-5,"MEAN_MOTION_DDOT":0},{"OBJECT_NAME":"STARLINK-35582","OBJECT_ID":"2025-265X","EPOCH":"2026-03-18T17:11:21.261120","MEAN_MOTION":15.27575207,"ECCENTRICITY":0.0001517,"INCLINATION":43.0001,"RA_OF_ASC_NODE":226.9781,"ARG_OF_PERICENTER":276.8419,"MEAN_ANOMALY":83.226,"EPHEMERIS_TYPE":0,"CLASSIFICATION_TYPE":"U","NORAD_CAT_ID":66537,"ELEMENT_SET_NO":999,"REV_AT_EPOCH":1849,"BSTAR":0.00064795,"MEAN_MOTION_DOT":0.00017608,"MEAN_MOTION_DDOT":0}]
