STARLINK-35946          
1 66522U 25265G   26077.73420914  .00019686  00000+0  72275-3 0  9998
2 66522  43.0012 227.1149 0001429 260.9248  99.1442 15.27589965 18494
STARLINK-35969          
1 66523U 25265H   26077.70979303  .00017670  00000+0  64995-3 0  9998
2 66523  42.9989 226.9296 0000218 206.1961 153.8879 15.27586276 18499
STARLINK-35687          
1 66524U 25265J   26077.67781462  .00025171  00000+0  92111-3 0  9998
2 66524  42.9986 227.5523 0001251 236.5694 123.5038 15.27579717 18487
STARLINK-35975          
1 66525U 25265K   26077.71107741  .00021151  00000+0  77490-3 0  9993
2 66525  43.0017 226.9443 0002260 275.9318  84.1276 15.27622787 18493
STARLINK-35932          
1 66526U 25265L   26077.70850862  .00018414  00000+0  67670-3 0  9999
2 66526  42.9992 226.9228 0001508 286.4347  73.6339 15.27594006 18493
STARLINK-35935          
1 66527U 25265M   26077.46623747  .00018929  00000+0  69545-3 0  9997
2 66527  43.0075 228.5412 0000438 251.1513 108.9291 15.27588077 18452
STARLINK-35928          
1 66528U 25265N   26077.70208372  .00016150  00000+0  59509-3 0  9991
2 66528  42.9976 226.8698 0000751 262.6993  97.3773 15.27581274 18497
STARLINK-35933          
1 66529U 25265P   26077.67397142  .00030254  00000+0  11029-2 0  9997
2 66529  43.0008 227.5258 0001247 260.5683  99.5028 15.27624754 18487
STARLINK-35961          
1 66530U 25265Q   26077.46366914  .00019750  00000+0  72492-3 0  9999
2 66530  43.0021 228.5275 0000649 271.0835  88.9942 15.27597287 18459
STARLINK-35960          
1 66531U 25265R   26077.75460532  .00023634  00000+0  86576-3 0  9997
2 66531  43.0008 226.4084 0001898 260.0497 100.0141 15.27573234 18508
STARLINK-35914          
1 66532U 25265S   26077.46495284  .00016266  00000+0  59913-3 0  9996
2 66532  43.0030 228.5368 0001166 271.4691  88.6027 15.27590626 18454
STARLINK-35707          
1 66533U 25265T   26077.71493052  .00013389  00000+0  49537-3 0  9990
2 66533  42.9997 226.9713 0001377 270.7869  89.2824 15.27567496 18499
STARLINK-35976          
1 66534U 25265U   26077.74191653  .00015149  00000+0  55863-3 0  9991
2 66534  43.0013 227.1676 0001479 241.6523 118.4180 15.27595810 18490
STARLINK-35514          
1 66535U 25265V   26077.47651578  .00024141  00000+0  88390-3 0  9992
2 66535  43.0001 228.6157 0001146 239.7363 120.3376 15.27580574 18455
STARLINK-35640          
1 66536U 25265W   26077.46236835 -.00007891  00000+0 -27763-3 0  9999
2 66536  43.0034 228.5137 0001777 273.9332  86.1317 15.27565850 18459
STARLINK-35582          
1 66537U 25265X   26077.71621830  .00017608  00000+0  64795-3 0  9992
2 66537  43.0001 226.9781 0001517 276.8419  83.2260 15.27575207 18497
